NORAD_CAT_ID,OBJECT_NAME,OBJECT_TYPE,EPOCH,MEAN_MOTION,ECCENTRICITY,INCLINATION,RA_OF_ASC_NODE,ARG_OF_PERICENTER,MEAN_ANOMALY,BSTAR,MEAN_MOTION_DOT,MEAN_MOTION_DDOT,TLE_LINE0,TLE_LINE1,TLE_LINE2,SEMIMAJOR_AXIS,PERIOD,APOGEE,PERIGEE,DECAYED
56818.0,STARLINK-6028,PAYLOAD,2023-10-11 22:00:00,15.02676082,0.0003358,70.0001,42.5181,279.609,41.5551,-0.077851,-0.00969653,0.0,0 STARLINK-6028,1 56818U 23078BD  23284.91667824 -.00969653  00000-0 -77851-1 0  9999,2 56818  70.0001  42.5181 0003358 279.6090  41.5551 15.02676082 21169,6936.785,95.829,560.98,556.321,0.0
56818.0,STARLINK-6028,PAYLOAD,2023-10-12 14:00:01,15.01352074,0.0003373,70.0007,40.8277,277.4322,47.5049,-0.077725,-0.00926452,0.0,0 STARLINK-6028,1 56818U 23078BD  23285.58334491 -.00926452  00000-0 -77725-1 0  9994,2 56818  70.0007  40.8277 0003373 277.4322  47.5049 15.01352074 21263,6940.863,95.914,565.069,560.387,0.0
56818.0,STARLINK-6028,PAYLOAD,2023-10-12 22:00:01,15.00720319,0.0003361,70.0005,39.9836,279.4207,46.2796,-0.082242,-0.00972493,0.0,0 STARLINK-6028,1 56818U 23078BD  23285.91668981 -.00972493  00000-0 -82242-1 0  9991,2 56818  70.0005  39.9836 0003361 279.4207  46.2796 15.00720319  5865,6942.811,95.954,567.009,562.342,0.0
56818.0,STARLINK-6028,PAYLOAD,2023-10-13 14:00:01,14.99300603,0.0003222,70.001,38.2984,279.2718,45.4561,-0.0022401,-0.00027397,0.0,0 STARLINK-6028,1 56818U 23078BD  23286.58334491 -.00027397  00000-0 -22401-2 0  9997,2 56818  70.0010  38.2984 0003222 279.2718  45.4561 14.99300603 21415,6947.193,96.045,571.296,566.82,0.0
56818.0,STARLINK-6028,PAYLOAD,2023-10-13 22:00:00,14.99414508,0.0003394,70.0009,37.4567,279.131,44.2038,-0.028733,-0.00336365,0.0,0 STARLINK-6028,1 56818U 23078BD  23286.91667824 -.00336365  00000-0 -28733-1 0  9994,2 56818  70.0009  37.4567 0003394 279.1310  44.2038 14.99414508  5911,6946.841,96.037,571.064,566.348,0.0
56818.0,STARLINK-6028,PAYLOAD,2023-10-14 04:00:00,14.99319544,0.0003296,70.0012,36.8255,272.6106,319.7457,-0.0731,-0.00832751,0.0,0 STARLINK-6028,1 56818U 23078BD  23287.16667824 -.00832751  00000-0 -73100-1 0  9990,2 56818  70.0012  36.8255 0003296 272.6106 319.7457 14.99319544 21506,6947.134,96.044,571.289,566.71,0.0
56818.0,STARLINK-6028,PAYLOAD,2023-10-14 14:00:01,14.98387965,0.0003058,70.0013,35.7742,277.6102,42.6068,-0.0085347,-0.00100632,0.0,0 STARLINK-6028,1 56818U 23078BD  23287.58335648 -.00100632  00000-0 -85347-2 0  9995,2 56818  70.0013  35.7742 0003058 277.6102  42.6068 14.98387965 21560,6950.014,96.103,574.004,569.753,0.0
56818.0,STARLINK-6028,PAYLOAD,2023-10-14 20:00:01,14.98342004,0.0003118,70.0011,35.1437,279.1391,309.2146,-0.0017384,-0.00020781,0.0,0 STARLINK-6028,1 56818U 23078BD  23287.83335648 -.00020781  00000-0 -17384-2 0  9995,2 56818  70.0011  35.1437 0003118 279.1391 309.2146 14.98342004 21606,6950.156,96.106,574.188,569.854,0.0
56818.0,STARLINK-6028,PAYLOAD,2023-10-14 22:00:00,14.98358865,0.0003101,70.0011,34.9337,278.0768,39.5823,-0.0055286,-0.00065496,0.0,0 STARLINK-6028,1 56818U 23078BD  23287.91667824 -.00065496  00000-0 -55286-2 0  9993,2 56818  70.0011  34.9337 0003101 278.0768  39.5823 14.98358865  5968,6950.104,96.105,574.124,569.813,0.0
56818.0,STARLINK-6028,PAYLOAD,2023-10-15 14:00:01,14.98314274,0.0003068,70.0015,33.253,276.0503,36.5612,0.0014024,0.00016673,0.0,0 STARLINK-6028,1 56818U 23078BD  23288.58334491  .00016673  00000-0  14024-2 0  9994,2 56818  70.0015  33.2530 0003068 276.0503  36.5612 14.98314274  5886,6950.242,96.108,574.239,569.974,0.0
56818.0,STARLINK-6028,PAYLOAD,2023-10-15 20:00:01,14.98338358,0.0003041,70.0012,32.6227,277.7961,302.9813,-0.00023014,-2.838e-05,0.0,0 STARLINK-6028,1 56818U 23078BD  23288.83335648 -.00002838  00000-0 -23014-3 0  9997,2 56818  70.0012  32.6227 0003041 277.7961 302.9813 14.98338358 21752,6950.167,96.106,574.146,569.918,0.0
56818.0,STARLINK-6028,PAYLOAD,2023-10-15 22:00:00,14.98352771,0.0003016,70.0012,32.4126,276.6307,33.453,-0.0029623,-0.00035282,0.0,0 STARLINK-6028,1 56818U 23078BD  23288.91667824 -.00035282  00000-0 -29623-2 0  9990,2 56818  70.0012  32.4126 0003016 276.6307  33.4530 14.98352771  5931,6950.122,96.106,574.084,569.891,0.0
56818.0,STARLINK-6028,PAYLOAD,2023-10-16 14:00:01,14.98370583,0.0003037,70.0014,30.7319,275.6509,29.4333,-0.0049357,-0.00058557,0.0,0 STARLINK-6028,1 56818U 23078BD  23289.58334491 -.00058557  00000-0 -49357-2 0  9991,2 56818  70.0014  30.7319 0003037 275.6509  29.4333 14.98370583  5919,6950.067,96.104,574.043,569.822,0.0
56818.0,STARLINK-6028,PAYLOAD,2023-10-16 22:00:00,14.98335784,0.0002979,70.0011,29.8914,273.6385,28.9579,-0.0033912,-0.0004033,0.0,0 STARLINK-6028,1 56818U 23078BD  23289.91667824 -.00040330  00000-0 -33912-2 0  9997,2 56818  70.0011  29.8914 0002979 273.6385  28.9579 14.98335784 21918,6950.175,96.107,574.11,569.97,0.0
56818.0,STARLINK-6028,PAYLOAD,2023-10-17 12:00:00,14.98350678,0.0003097,70.0014,28.4207,271.1599,297.0104,-0.0038529,-0.00045791,0.0,0 STARLINK-6028,1 56818U 23078BD  23290.50001157 -.00045791  00000-0 -38529-2 0  9990,2 56818  70.0014  28.4207 0003097 271.1599 297.0104 14.98350678 22006,6950.129,96.106,574.146,569.841,0.0
56818.0,STARLINK-6028,PAYLOAD,2023-10-17 14:00:01,14.98336706,0.0003099,70.0013,28.2106,273.2151,24.3322,-0.0022084,-0.00026349,0.0,0 STARLINK-6028,1 56818U 23078BD  23290.58334491 -.00026349  00000-0 -22084-2 0  9995,2 56818  70.0013  28.2106 0003099 273.2151  24.3322 14.98336706  5910,6950.172,96.107,574.191,569.883,0.0
56818.0,STARLINK-6028,PAYLOAD,2023-10-17 23:53:31,14.98343644,0.0002804,70.0005,27.1713,271.4271,88.6567,-0.00037683,-4.588e-05,0.0,0 STARLINK-6028,1 56818U 23078BD  23290.99550545 -.00004588  00000-0 -37683-3 0  9993,2 56818  70.0005  27.1713 0002804 271.4271  88.6567 14.98343644 22078,6950.151,96.106,573.965,570.067,0.0
56818.0,STARLINK-6028,PAYLOAD,2023-10-18 12:42:36,14.98333297,0.000265,70.0001,25.8242,260.4515,99.6345,-6.9049e-05,-9.17e-06,0.0,0 STARLINK-6028,1 56818U 23078BD  23291.52958367 -.00000917  00000-0 -69049-4 0  9991,2 56818  70.0001  25.8242 0002650 260.4515  99.6345 14.98333297 22589,6950.183,96.107,573.889,570.206,0.0
56818.0,STARLINK-6028,PAYLOAD,2023-10-18 23:55:31,14.98360643,0.0002805,69.9997,24.6454,261.9139,98.1702,-0.00048104,-5.832e-05,0.0,0 STARLINK-6028,1 56818U 23078BD  23291.99689278 -.00005832  00000-0 -48104-3 0  9993,2 56818  69.9997  24.6454 0002805 261.9139  98.1702 14.98360643 22229,6950.098,96.105,573.913,570.014,0.0
56818.0,STARLINK-6028,PAYLOAD,2023-10-19 11:08:28,14.98333132,0.0002575,69.9995,23.4666,256.9469,103.1402,0.0001408,1.588e-05,0.0,0 STARLINK-6028,1 56818U 23078BD  23292.46421484  .00001588  00000-0  14080-3 0  9997,2 56818  69.9995  23.4666 0002575 256.9469 103.1402 14.98333132 22297,6950.183,96.107,573.838,570.259,0.0
56818.0,STARLINK-6028,PAYLOAD,2023-10-20 09:34:22,14.98316372,0.0003148,69.9994,21.1114,273.4743,86.6056,-0.00010994,-1.404e-05,0.0,0 STARLINK-6028,1 56818U 23078BD  23293.39886986 -.00001404  00000-0 -10994-3 0  9991,2 56818  69.9994  21.1114 0003148 273.4743  86.6056 14.98316372 22438,6950.235,96.108,574.288,569.912,0.0
56818.0,STARLINK-6028,PAYLOAD,2023-10-20 15:58:54,14.98322864,0.0003082,69.9992,20.4376,274.3816,85.6991,-8.1424e-05,-1.064e-05,0.0,0 STARLINK-6028,1 56818U 23078BD  23293.66590677 -.00001064  00000-0 -81424-4 0  9999,2 56818  69.9992  20.4376 0003082 274.3816  85.6991 14.98322864 22470,6950.215,96.107,574.222,569.938,0.0
56818.0,STARLINK-6028,PAYLOAD,2023-10-21 11:12:30,14.98331837,0.0003069,70.0001,18.4184,276.4039,83.6771,-4.2044e-05,-5.95e-06,0.0,0 STARLINK-6028,1 56818U 23078BD  23294.46702065 -.00000595  00000-0 -42044-4 0  9997,2 56818  70.0001  18.4184 0003069 276.4039  83.6771 14.98331837 22590,6950.187,96.107,574.185,569.919,0.0
56818.0,STARLINK-6028,PAYLOAD,2023-10-21 12:48:37,14.98358606,0.000271,69.9992,18.2499,266.1056,93.9793,-0.00035641,-4.346e-05,0.0,0 STARLINK-6028,1 56818U 23078BD  23294.53377126 -.00004346  00000-0 -35641-3 0  9993,2 56818  69.9992  18.2499 0002710 266.1056  93.9793 14.98358606 23031,6950.104,96.105,573.853,570.086,0.0
56818.0,STARLINK-6028,PAYLOAD,2023-10-22 11:14:32,14.98317574,0.0003272,69.999,15.893,277.8686,82.2101,7.7086e-05,8.27e-06,0.0,0 STARLINK-6028,1 56818U 23078BD  23295.46842621  .00000827  00000-0  77086-4 0  9991,2 56818  69.9990  15.8930 0003272 277.8686  82.2101 14.98317574 22744,6950.231,96.108,574.37,569.822,0.0
56818.0,STARLINK-6028,PAYLOAD,2023-10-22 12:50:39,14.98329693,0.0002677,69.9988,15.7245,268.6181,91.4671,-0.00011905,-1.513e-05,0.0,0 STARLINK-6028,1 56818U 23078BD  23295.53518402 -.00001513  00000-0 -11905-3 0  9998,2 56818  69.9988  15.7245 0002677 268.6181  91.4671 14.98329693 23183,6950.194,96.107,573.919,570.198,0.0
56818.0,STARLINK-6028,PAYLOAD,2023-10-22 14:26:47,14.98353916,0.0002859,69.9982,15.5553,268.8615,91.2216,-0.00047392,-5.747e-05,0.0,0 STARLINK-6028,1 56818U 23078BD  23295.60193709 -.00005747  00000-0 -47392-3 0  9997,2 56818  69.9982  15.5553 0002859 268.8615  91.2216 14.98353916 22764,6950.119,96.105,573.971,569.997,0.0
56818.0,STARLINK-6028,PAYLOAD,2023-10-22 22:27:28,14.98318336,0.0003326,69.9992,14.7154,272.9775,87.1004,0.00013433,1.51e-05,0.0,0 STARLINK-6028,1 56818U 23078BD  23295.93574514  .00001510  00000-0  13433-3 0  9991,2 56818  69.9992  14.7154 0003326 272.9775  87.1004 14.98318336 23246,6950.229,96.108,574.406,569.782,0.0
56818.0,STARLINK-6028,PAYLOAD,2023-10-23 11:16:32,14.98334844,0.0002841,69.9997,13.3675,270.3261,89.7572,2.7641e-05,2.37e-06,0.0,0 STARLINK-6028,1 56818U 23078BD  23296.46981884  .00000237  00000-0  27641-4 0  9994,2 56818  69.9997  13.3675 0002841 270.3261  89.7572 14.98334844 22897,6950.178,96.107,574.017,570.068,0.0
56818.0,STARLINK-6028,PAYLOAD,2023-10-24 04:54:01,14.98323289,0.0003056,69.9992,11.5171,273.8059,86.2751,4.0467e-05,3.9e-06,0.0,0 STARLINK-6028,1 56818U 23078BD  23297.20418504  .00000390  00000-0  40467-4 0  9992,2 56818  69.9992  11.5171 0003056 273.8059  86.2751 14.98323289 23001,6950.214,96.107,574.203,569.955,0.0
